[{"OBJECT_NAME":"METOP-C","OBJECT_ID":"2018-087A","EPOCH":"2026-03-05T19:25:17.052096","MEAN_MOTION":14.21495525,"ECCENTRICITY":0.0002179,"INCLINATION":98.6773,"RA_OF_ASC_NODE":126.2479,"ARG_OF_PERICENTER":105.2951,"MEAN_ANOMALY":254.8467,"EPHEMERIS_TYPE":0,"CLASSIFICATION_TYPE":"U","NORAD_CAT_ID":43689,"ELEMENT_SET_NO":999,"REV_AT_EPOCH":38014,"BSTAR":9.0131e-5,"MEAN_MOTION_DOT":1.54e-6,"MEAN_MOTION_DDOT":0},{"OBJECT_NAME":"GEO-KOMPSAT-2A","OBJECT_ID":"2018-100A","EPOCH":"2026-03-04T06:21:38.470176","MEAN_MOTION":1.00267019,"ECCENTRICITY":0.00017508,"INCLINATION":0.0084,"RA_OF_ASC_NODE":82.1864,"ARG_OF_PERICENTER":326.5345,"MEAN_ANOMALY":336.9688,"EPHEMERIS_TYPE":0,"CLASSIFICATION_TYPE":"U","NORAD_CAT_ID":43823,"ELEMENT_SET_NO":999,"REV_AT_EPOCH":2657,"BSTAR":0,"MEAN_MOTION_DOT":0,"MEAN_MOTION_DDOT":0},{"OBJECT_NAME":"METEOR-M2 2","OBJECT_ID":"2019-038A","EPOCH":"2026-03-05T21:52:28.132608","MEAN_MOTION":14.24332392,"ECCENTRICITY":0.000108,"INCLINATION":98.908,"RA_OF_ASC_NODE":50.7102,"ARG_OF_PERICENTER":11.202,"MEAN_ANOMALY":348.9182,"EPHEMERIS_TYPE":0,"CLASSIFICATION_TYPE":"U","NORAD_CAT_ID":44387,"ELEMENT_SET_NO":999,"REV_AT_EPOCH":34659,"BSTAR":7.6394e-5,"MEAN_MOTION_DOT":1.31e-6,"MEAN_MOTION_DDOT":0},{"OBJECT_NAME":"ARKTIKA-M 1","OBJECT_ID":"2021-016A","EPOCH":"2026-03-02T19:44:56.440608","MEAN_MOTION":2.00620868,"ECCENTRICITY":0.72428147,"INCLINATION":63.2036,"RA_OF_ASC_NODE":72.8571,"ARG_OF_PERICENTER":269.4536,"MEAN_ANOMALY":15.2019,"EPHEMERIS_TYPE":0,"CLASSIFICATION_TYPE":"U","NORAD_CAT_ID":47719,"ELEMENT_SET_NO":999,"REV_AT_EPOCH":3665,"BSTAR":0,"MEAN_MOTION_DOT":-1.08e-6,"MEAN_MOTION_DDOT":0},{"OBJECT_NAME":"FENGYUN 3E","OBJECT_ID":"2021-062A","EPOCH":"2026-03-05T21:31:24.497184","MEAN_MOTION":14.19892989,"ECCENTRICITY":0.0002408,"INCLINATION":98.7509,"RA_OF_ASC_NODE":69.4522,"ARG_OF_PERICENTER":49.4905,"MEAN_ANOMALY":310.6481,"EPHEMERIS_TYPE":0,"CLASSIFICATION_TYPE":"U","NORAD_CAT_ID":49008,"ELEMENT_SET_NO":999,"REV_AT_EPOCH":24192,"BSTAR":-5.2748e-5,"MEAN_MOTION_DOT":-1.56e-6,"MEAN_MOTION_DDOT":0},{"OBJECT_NAME":"GOES 18","OBJECT_ID":"2022-021A","EPOCH":"2026-03-05T19:38:22.378848","MEAN_MOTION":1.00272735,"ECCENTRICITY":6.92e-5,"INCLINATION":0.0333,"RA_OF_ASC_NODE":75.5863,"ARG_OF_PERICENTER":327.0556,"MEAN_ANOMALY":278.4855,"EPHEMERIS_TYPE":0,"CLASSIFICATION_TYPE":"U","NORAD_CAT_ID":51850,"ELEMENT_SET_NO":999,"REV_AT_EPOCH":555,"BSTAR":0,"MEAN_MOTION_DOT":9.0e-7,"MEAN_MOTION_DDOT":0},{"OBJECT_NAME":"NOAA 21 (JPSS-2)","OBJECT_ID":"2022-150A","EPOCH":"2026-03-05T18:36:00.354240","MEAN_MOTION":14.19550951,"ECCENTRICITY":0.0002577,"INCLINATION":98.7551,"RA_OF_ASC_NODE":5.0858,"ARG_OF_PERICENTER":113.5197,"MEAN_ANOMALY":246.625,"EPHEMERIS_TYPE":0,"CLASSIFICATION_TYPE":"U","NORAD_CAT_ID":54234,"ELEMENT_SET_NO":999,"REV_AT_EPOCH":17187,"BSTAR":8.223e-5,"MEAN_MOTION_DOT":1.29e-6,"MEAN_MOTION_DDOT":0},{"OBJECT_NAME":"METEOSAT-12 (MTG-I1)","OBJECT_ID":"2022-170C","EPOCH":"2026-03-05T19:07:49.642176","MEAN_MOTION":1.0026978,"ECCENTRICITY":0.0002069,"INCLINATION":0.7024,"RA_OF_ASC_NODE":21.6014,"ARG_OF_PERICENTER":286.8138,"MEAN_ANOMALY":141.7591,"EPHEMERIS_TYPE":0,"CLASSIFICATION_TYPE":"U","NORAD_CAT_ID":54743,"ELEMENT_SET_NO":999,"REV_AT_EPOCH":1194,"BSTAR":0,"MEAN_MOTION_DOT":-1.4e-7,"MEAN_MOTION_DDOT":0},{"OBJECT_NAME":"TIANMU-1 03","OBJECT_ID":"2023-039A","EPOCH":"2026-03-05T20:40:36.464160","MEAN_MOTION":15.4402645,"ECCENTRICITY":0.0004021,"INCLINATION":97.5173,"RA_OF_ASC_NODE":235.0511,"ARG_OF_PERICENTER":112.4528,"MEAN_ANOMALY":247.7146,"EPHEMERIS_TYPE":0,"CLASSIFICATION_TYPE":"U","NORAD_CAT_ID":55973,"ELEMENT_SET_NO":999,"REV_AT_EPOCH":16487,"BSTAR":0.00045545,"MEAN_MOTION_DOT":0.00020719,"MEAN_MOTION_DDOT":0},{"OBJECT_NAME":"TIANMU-1 04","OBJECT_ID":"2023-039B","EPOCH":"2026-03-05T21:15:50.921856","MEAN_MOTION":15.44435591,"ECCENTRICITY":0.0004655,"INCLINATION":97.5106,"RA_OF_ASC_NODE":234.2376,"ARG_OF_PERICENTER":108.4019,"MEAN_ANOMALY":251.7736,"EPHEMERIS_TYPE":0,"CLASSIFICATION_TYPE":"U","NORAD_CAT_ID":55974,"ELEMENT_SET_NO":999,"REV_AT_EPOCH":16488,"BSTAR":0.00048276,"MEAN_MOTION_DOT":0.0002228,"MEAN_MOTION_DDOT":0},{"OBJECT_NAME":"TIANMU-1 05","OBJECT_ID":"2023-039C","EPOCH":"2026-03-05T20:06:40.886208","MEAN_MOTION":15.43966256,"ECCENTRICITY":0.000377,"INCLINATION":97.5151,"RA_OF_ASC_NODE":234.6794,"ARG_OF_PERICENTER":129.5385,"MEAN_ANOMALY":230.6197,"EPHEMERIS_TYPE":0,"CLASSIFICATION_TYPE":"U","NORAD_CAT_ID":55975,"ELEMENT_SET_NO":999,"REV_AT_EPOCH":16485,"BSTAR":0.0004582,"MEAN_MOTION_DOT":0.00020802,"MEAN_MOTION_DDOT":0},{"OBJECT_NAME":"TIANMU-1 06","OBJECT_ID":"2023-039D","EPOCH":"2026-03-05T21:15:40.252320","MEAN_MOTION":15.44464949,"ECCENTRICITY":0.0004092,"INCLINATION":97.5163,"RA_OF_ASC_NODE":235.2658,"ARG_OF_PERICENTER":125.3694,"MEAN_ANOMALY":234.7937,"EPHEMERIS_TYPE":0,"CLASSIFICATION_TYPE":"U","NORAD_CAT_ID":55976,"ELEMENT_SET_NO":999,"REV_AT_EPOCH":16488,"BSTAR":0.00048169,"MEAN_MOTION_DOT":0.00022251,"MEAN_MOTION_DDOT":0},{"OBJECT_NAME":"FENGYUN 3G","OBJECT_ID":"2023-055A","EPOCH":"2026-03-05T18:38:21.930144","MEAN_MOTION":15.54329458,"ECCENTRICITY":0.0010735,"INCLINATION":49.9931,"RA_OF_ASC_NODE":159.2025,"ARG_OF_PERICENTER":355.4969,"MEAN_ANOMALY":4.5901,"EPHEMERIS_TYPE":0,"CLASSIFICATION_TYPE":"U","NORAD_CAT_ID":56232,"ELEMENT_SET_NO":999,"REV_AT_EPOCH":16393,"BSTAR":0.00052367,"MEAN_MOTION_DOT":0.00034725,"MEAN_MOTION_DDOT":0},{"OBJECT_NAME":"METEOR-M2 3","OBJECT_ID":"2023-091A","EPOCH":"2026-03-05T21:11:20.815584","MEAN_MOTION":14.24037277,"ECCENTRICITY":0.0005072,"INCLINATION":98.6222,"RA_OF_ASC_NODE":121.9142,"ARG_OF_PERICENTER":107.9132,"MEAN_ANOMALY":252.26,"EPHEMERIS_TYPE":0,"CLASSIFICATION_TYPE":"U","NORAD_CAT_ID":57166,"ELEMENT_SET_NO":999,"REV_AT_EPOCH":13981,"BSTAR":3.8365e-5,"MEAN_MOTION_DOT":4.5e-7,"MEAN_MOTION_DDOT":0},{"OBJECT_NAME":"TIANMU-1 07","OBJECT_ID":"2023-101A","EPOCH":"2026-03-05T20:30:46.535328","MEAN_MOTION":15.291075,"ECCENTRICITY":0.0004561,"INCLINATION":97.2729,"RA_OF_ASC_NODE":117.889,"ARG_OF_PERICENTER":144.3431,"MEAN_ANOMALY":215.8114,"EPHEMERIS_TYPE":0,"CLASSIFICATION_TYPE":"U","NORAD_CAT_ID":57399,"ELEMENT_SET_NO":999,"REV_AT_EPOCH":14585,"BSTAR":0.00031701,"MEAN_MOTION_DOT":8.888e-5,"MEAN_MOTION_DDOT":0},{"OBJECT_NAME":"TIANMU-1 08","OBJECT_ID":"2023-101B","EPOCH":"2026-03-05T15:04:38.206272","MEAN_MOTION":15.29264476,"ECCENTRICITY":0.0006508,"INCLINATION":97.2726,"RA_OF_ASC_NODE":117.4462,"ARG_OF_PERICENTER":136.1408,"MEAN_ANOMALY":224.035,"EPHEMERIS_TYPE":0,"CLASSIFICATION_TYPE":"U","NORAD_CAT_ID":57400,"ELEMENT_SET_NO":999,"REV_AT_EPOCH":14581,"BSTAR":1.7109e-5,"MEAN_MOTION_DOT":4.13e-6,"MEAN_MOTION_DDOT":0},{"OBJECT_NAME":"TIANMU-1 09","OBJECT_ID":"2023-101C","EPOCH":"2026-03-05T20:54:50.911776","MEAN_MOTION":15.29008044,"ECCENTRICITY":0.0004525,"INCLINATION":97.2676,"RA_OF_ASC_NODE":117.1627,"ARG_OF_PERICENTER":150.4744,"MEAN_ANOMALY":209.6753,"EPHEMERIS_TYPE":0,"CLASSIFICATION_TYPE":"U","NORAD_CAT_ID":57401,"ELEMENT_SET_NO":999,"REV_AT_EPOCH":14585,"BSTAR":0.00035774,"MEAN_MOTION_DOT":0.0001001,"MEAN_MOTION_DDOT":0}]
