METOP-C                 
1 43689U 18087A   26064.80922514  .00000154  00000+0  90131-4 0  9990
2 43689  98.6773 126.2479 0002179 105.2951 254.8467 14.21495525380145
GEO-KOMPSAT-2A          
1 43823U 18100A   26063.26502859  .00000000  00000+0  00000+0 0  9992
2 43823   0.0084  82.1864 0001750 326.5345 336.9688  1.00267019 26573
METEOR-M2 2             
1 44387U 19038A   26064.91143672  .00000131  00000+0  76394-4 0  9995
2 44387  98.9080  50.7102 0001080  11.2020 348.9182 14.24332392346597
ARKTIKA-M 1             
1 47719U 21016A   26061.82287547 -.00000108  00000+0  00000+0 0  9994
2 47719  63.2036  72.8571 7242814 269.4536  15.2019  2.00620868 36653
FENGYUN 3E              
1 49008U 21062A   26064.89681131 -.00000156  00000+0 -52748-4 0  9990
2 49008  98.7509  69.4522 0002408  49.4905 310.6481 14.19892989241925
GOES 18                 
1 51850U 22021A   26064.81831457  .00000090  00000+0  00000+0 0  9998
2 51850   0.0333  75.5863 0000692 327.0556 278.4855  1.00272735  5550
NOAA 21 (JPSS-2)        
1 54234U 22150A   26064.77500410  .00000129  00000+0  82230-4 0  9990
2 54234  98.7551   5.0858 0002577 113.5197 246.6250 14.19550951171878
METEOSAT-12 (MTG-I1)    
1 54743U 22170C   26064.79710234 -.00000014  00000+0  00000+0 0  9990
2 54743   0.7024  21.6014 0002069 286.8138 141.7591  1.00269780 11941
TIANMU-1 03             
1 55973U 23039A   26064.86153315  .00020719  00000+0  45545-3 0  9990
2 55973  97.5173 235.0511 0004021 112.4528 247.7146 15.44026450164878
TIANMU-1 04             
1 55974U 23039B   26064.88600604  .00022280  00000+0  48276-3 0  9990
2 55974  97.5106 234.2376 0004655 108.4019 251.7736 15.44435591164889
TIANMU-1 05             
1 55975U 23039C   26064.83797322  .00020802  00000+0  45820-3 0  9990
2 55975  97.5151 234.6794 0003770 129.5385 230.6197 15.43966256164855
TIANMU-1 06             
1 55976U 23039D   26064.88588255  .00022251  00000+0  48169-3 0  9998
2 55976  97.5163 235.2658 0004092 125.3694 234.7937 15.44464949164883
FENGYUN 3G              
1 56232U 23055A   26064.77664271  .00034725  00000+0  52367-3 0  9997
2 56232  49.9931 159.2025 0010735 355.4969   4.5901 15.54329458163933
METEOR-M2 3             
1 57166U 23091A   26064.88287981  .00000045  00000+0  38365-4 0  9996
2 57166  98.6222 121.9142 0005072 107.9132 252.2600 14.24037277139819
TIANMU-1 07             
1 57399U 23101A   26064.85470527  .00008888  00000+0  31701-3 0  9992
2 57399  97.2729 117.8890 0004561 144.3431 215.8114 15.29107500145856
TIANMU-1 08             
1 57400U 23101B   26064.62821998  .00000413  00000+0  17109-4 0  9995
2 57400  97.2726 117.4462 0006508 136.1408 224.0350 15.29264476145819
TIANMU-1 09             
1 57401U 23101C   26064.87142259  .00010010  00000+0  35774-3 0  9990
2 57401  97.2676 117.1627 0004525 150.4744 209.6753 15.29008044145850
